STARLINK-35365          
1 66186U 25243K   26062.56645237  .00032019  00000+0  10882-2 0  9992
2 66186  53.1578 273.8873 0001003  80.7148 279.3966 15.30209302 19713
STARLINK-35350          
1 66187U 25243L   26061.98600679  .00022760  00000+0  77803-3 0  9998
2 66187  53.1582 276.6618 0001246  77.0242 283.0898 15.30207549 19627
STARLINK-35041          
1 66188U 25243M   26062.55695559  .00026297  00000+0  89650-3 0  9996
2 66188  53.1572 273.8300 0001631  54.6505 305.4648 15.30212208 19715
STARLINK-34694          
1 66189U 25243N   26062.02810250  .00021492  00000+0  73531-3 0  9999
2 66189  53.1576 276.2127 0001168  67.9943 292.1182 15.30215074 19632
STARLINK-34863          
1 66190U 25243P   26061.97545273  .00026590  00000+0  90614-3 0  9999
2 66190  53.1581 276.5955 0001201  84.4553 275.6585 15.30219649 19625
STARLINK-35061          
1 66191U 25243Q   26062.57594994  .00030061  00000+0  10224-2 0  9997
2 66191  53.1588 273.9455 0001552  70.7984 289.3185 15.30216738 19718
STARLINK-34937          
1 66192U 25243R   26062.57911256  .00029209  00000+0  99413-3 0  9992
2 66192  53.1581 273.9602 0000936 126.4613 233.6475 15.30210672 19714
STARLINK-35197          
1 66193U 25243S   26062.60327213  .00026591  00000+0  90635-3 0  9999
2 66193  53.1566 273.3971 0001092 112.8430 247.2686 15.30212810 19723
STARLINK-35374          
1 66194U 25243T   26062.01859680  .00004962  00000+0  17956-3 0  9996
2 66194  53.1574 276.1533 0000847  79.0783 281.0313 15.30197376 19632
STARLINK-34813          
1 66195U 25243U   26062.02177283  .00017460  00000+0  60023-3 0  9990
2 66195  53.1573 276.1718 0001118  83.2061 276.9067 15.30199557 19637
STARLINK-35409          
1 66196U 25243V   26062.02493701  .00017240  00000+0  59284-3 0  9990
2 66196  53.1575 276.1920 0001069  88.7368 271.3755 15.30199751 19639
STARLINK-35518          
1 66197U 25243X   26062.03126741  .00032935  00000+0  11189-2 0  9998
2 66197  53.1572 276.2334 0001061  95.1404 264.9718 15.30207400 19630
STARLINK-35259          
1 66198U 25243W   26062.58228146  .00040211  00000+0  13623-2 0  9992
2 66198  53.1576 273.9796 0001323  94.8823 265.2329 15.30203997 19711
STARLINK-35509          
1 66199U 25243Y   26062.01438462  .00026983  00000+0  91951-3 0  9996
2 66199  53.1571 276.1237 0000997  80.4142 279.6971 15.30211911 19631
STARLINK-35551          
1 66200U 25243Z   26062.60536152  .00038679  00000+0  13079-2 0  9998
2 66200  53.1567 273.4112 0000520 352.9480   7.1513 15.30284321 19726
STARLINK-35543          
1 66201U 25243AA  26061.89010687  .00014528  00000+0  50164-3 0  9993
2 66201  53.1577 276.7686 0001113 100.3307 259.7819 15.30202742 19611
