[{"OBJECT_NAME":"STARLINK-35365","OBJECT_ID":"2025-243K","EPOCH":"2026-03-03T13:35:41.484768","MEAN_MOTION":15.30209302,"ECCENTRICITY":0.00010034,"INCLINATION":53.1578,"RA_OF_ASC_NODE":273.8873,"ARG_OF_PERICENTER":80.7148,"MEAN_ANOMALY":279.3966,"EPHEMERIS_TYPE":0,"CLASSIFICATION_TYPE":"U","NORAD_CAT_ID":66186,"ELEMENT_SET_NO":999,"REV_AT_EPOCH":1971,"BSTAR":0.0010882256,"MEAN_MOTION_DOT":0.00032019,"MEAN_MOTION_DDOT":0},{"OBJECT_NAME":"STARLINK-35350","OBJECT_ID":"2025-243L","EPOCH":"2026-03-02T23:39:50.986656","MEAN_MOTION":15.30207549,"ECCENTRICITY":0.0001246,"INCLINATION":53.1582,"RA_OF_ASC_NODE":276.6618,"ARG_OF_PERICENTER":77.0242,"MEAN_ANOMALY":283.0898,"EPHEMERIS_TYPE":0,"CLASSIFICATION_TYPE":"U","NORAD_CAT_ID":66187,"ELEMENT_SET_NO":999,"REV_AT_EPOCH":1962,"BSTAR":0.0007780314,"MEAN_MOTION_DOT":0.0002276,"MEAN_MOTION_DDOT":0},{"OBJECT_NAME":"STARLINK-35041","OBJECT_ID":"2025-243M","EPOCH":"2026-03-03T13:22:00.962976","MEAN_MOTION":15.30212208,"ECCENTRICITY":0.00016311,"INCLINATION":53.1572,"RA_OF_ASC_NODE":273.83,"ARG_OF_PERICENTER":54.6505,"MEAN_ANOMALY":305.4648,"EPHEMERIS_TYPE":0,"CLASSIFICATION_TYPE":"U","NORAD_CAT_ID":66188,"ELEMENT_SET_NO":999,"REV_AT_EPOCH":1971,"BSTAR":0.00089649839,"MEAN_MOTION_DOT":0.00026297,"MEAN_MOTION_DDOT":0},{"OBJECT_NAME":"STARLINK-34694","OBJECT_ID":"2025-243N","EPOCH":"2026-03-03T00:40:28.056000","MEAN_MOTION":15.30215074,"ECCENTRICITY":0.00011688,"INCLINATION":53.1576,"RA_OF_ASC_NODE":276.2127,"ARG_OF_PERICENTER":67.9943,"MEAN_ANOMALY":292.1182,"EPHEMERIS_TYPE":0,"CLASSIFICATION_TYPE":"U","NORAD_CAT_ID":66189,"ELEMENT_SET_NO":999,"REV_AT_EPOCH":1963,"BSTAR":0.00073530521,"MEAN_MOTION_DOT":0.00021492,"MEAN_MOTION_DDOT":0},{"OBJECT_NAME":"STARLINK-34863","OBJECT_ID":"2025-243P","EPOCH":"2026-03-02T23:24:39.115872","MEAN_MOTION":15.30219649,"ECCENTRICITY":0.0001201,"INCLINATION":53.1581,"RA_OF_ASC_NODE":276.5955,"ARG_OF_PERICENTER":84.4553,"MEAN_ANOMALY":275.6585,"EPHEMERIS_TYPE":0,"CLASSIFICATION_TYPE":"U","NORAD_CAT_ID":66190,"ELEMENT_SET_NO":999,"REV_AT_EPOCH":1962,"BSTAR":0.00090614,"MEAN_MOTION_DOT":0.0002659,"MEAN_MOTION_DDOT":0},{"OBJECT_NAME":"STARLINK-35061","OBJECT_ID":"2025-243Q","EPOCH":"2026-03-03T13:49:22.074816","MEAN_MOTION":15.30216738,"ECCENTRICITY":0.00015522,"INCLINATION":53.1588,"RA_OF_ASC_NODE":273.9455,"ARG_OF_PERICENTER":70.7984,"MEAN_ANOMALY":289.3185,"EPHEMERIS_TYPE":0,"CLASSIFICATION_TYPE":"U","NORAD_CAT_ID":66191,"ELEMENT_SET_NO":999,"REV_AT_EPOCH":1971,"BSTAR":0.0010224346,"MEAN_MOTION_DOT":0.00030061,"MEAN_MOTION_DDOT":0},{"OBJECT_NAME":"STARLINK-34937","OBJECT_ID":"2025-243R","EPOCH":"2026-03-03T13:53:55.325184","MEAN_MOTION":15.30210672,"ECCENTRICITY":9.366e-5,"INCLINATION":53.1581,"RA_OF_ASC_NODE":273.9602,"ARG_OF_PERICENTER":126.4613,"MEAN_ANOMALY":233.6475,"EPHEMERIS_TYPE":0,"CLASSIFICATION_TYPE":"U","NORAD_CAT_ID":66192,"ELEMENT_SET_NO":999,"REV_AT_EPOCH":1971,"BSTAR":0.00099412632,"MEAN_MOTION_DOT":0.00029209,"MEAN_MOTION_DDOT":0},{"OBJECT_NAME":"STARLINK-35197","OBJECT_ID":"2025-243S","EPOCH":"2026-03-03T14:28:42.712032","MEAN_MOTION":15.3021281,"ECCENTRICITY":0.00010929,"INCLINATION":53.1566,"RA_OF_ASC_NODE":273.3971,"ARG_OF_PERICENTER":112.843,"MEAN_ANOMALY":247.2686,"EPHEMERIS_TYPE":0,"CLASSIFICATION_TYPE":"U","NORAD_CAT_ID":66193,"ELEMENT_SET_NO":999,"REV_AT_EPOCH":1972,"BSTAR":0.00090634717,"MEAN_MOTION_DOT":0.00026591,"MEAN_MOTION_DDOT":0},{"OBJECT_NAME":"STARLINK-35374","OBJECT_ID":"2025-243T","EPOCH":"2026-03-03T00:26:46.763520","MEAN_MOTION":15.30197376,"ECCENTRICITY":8.479e-5,"INCLINATION":53.1574,"RA_OF_ASC_NODE":276.1533,"ARG_OF_PERICENTER":79.0783,"MEAN_ANOMALY":281.0313,"EPHEMERIS_TYPE":0,"CLASSIFICATION_TYPE":"U","NORAD_CAT_ID":66194,"ELEMENT_SET_NO":999,"REV_AT_EPOCH":1963,"BSTAR":0.00017956257,"MEAN_MOTION_DOT":4.962e-5,"MEAN_MOTION_DDOT":0},{"OBJECT_NAME":"STARLINK-34813","OBJECT_ID":"2025-243U","EPOCH":"2026-03-03T00:31:21.172512","MEAN_MOTION":15.30199557,"ECCENTRICITY":0.00011181,"INCLINATION":53.1573,"RA_OF_ASC_NODE":276.1718,"ARG_OF_PERICENTER":83.2061,"MEAN_ANOMALY":276.9067,"EPHEMERIS_TYPE":0,"CLASSIFICATION_TYPE":"U","NORAD_CAT_ID":66195,"ELEMENT_SET_NO":999,"REV_AT_EPOCH":1963,"BSTAR":0.00060023326,"MEAN_MOTION_DOT":0.0001746,"MEAN_MOTION_DDOT":0},{"OBJECT_NAME":"STARLINK-35409","OBJECT_ID":"2025-243V","EPOCH":"2026-03-03T00:35:54.557664","MEAN_MOTION":15.30199751,"ECCENTRICITY":0.00010695,"INCLINATION":53.1575,"RA_OF_ASC_NODE":276.192,"ARG_OF_PERICENTER":88.7368,"MEAN_ANOMALY":271.3755,"EPHEMERIS_TYPE":0,"CLASSIFICATION_TYPE":"U","NORAD_CAT_ID":66196,"ELEMENT_SET_NO":999,"REV_AT_EPOCH":1963,"BSTAR":0.00059283626,"MEAN_MOTION_DOT":0.0001724,"MEAN_MOTION_DDOT":0},{"OBJECT_NAME":"STARLINK-35518","OBJECT_ID":"2025-243X","EPOCH":"2026-03-03T00:45:01.504224","MEAN_MOTION":15.302074,"ECCENTRICITY":0.00010611,"INCLINATION":53.1572,"RA_OF_ASC_NODE":276.2334,"ARG_OF_PERICENTER":95.1404,"MEAN_ANOMALY":264.9718,"EPHEMERIS_TYPE":0,"CLASSIFICATION_TYPE":"U","NORAD_CAT_ID":66197,"ELEMENT_SET_NO":999,"REV_AT_EPOCH":1963,"BSTAR":0.00111894,"MEAN_MOTION_DOT":0.00032935,"MEAN_MOTION_DDOT":0},{"OBJECT_NAME":"STARLINK-35259","OBJECT_ID":"2025-243W","EPOCH":"2026-03-03T13:58:29.118144","MEAN_MOTION":15.30203997,"ECCENTRICITY":0.00013238,"INCLINATION":53.1576,"RA_OF_ASC_NODE":273.9796,"ARG_OF_PERICENTER":94.8823,"MEAN_ANOMALY":265.2329,"EPHEMERIS_TYPE":0,"CLASSIFICATION_TYPE":"U","NORAD_CAT_ID":66198,"ELEMENT_SET_NO":999,"REV_AT_EPOCH":1971,"BSTAR":0.0013622821,"MEAN_MOTION_DOT":0.00040211,"MEAN_MOTION_DDOT":0},{"OBJECT_NAME":"STARLINK-35509","OBJECT_ID":"2025-243Y","EPOCH":"2026-03-03T00:20:42.831168","MEAN_MOTION":15.30211911,"ECCENTRICITY":9.973e-5,"INCLINATION":53.1571,"RA_OF_ASC_NODE":276.1237,"ARG_OF_PERICENTER":80.4142,"MEAN_ANOMALY":279.6971,"EPHEMERIS_TYPE":0,"CLASSIFICATION_TYPE":"U","NORAD_CAT_ID":66199,"ELEMENT_SET_NO":999,"REV_AT_EPOCH":1963,"BSTAR":0.00091950835,"MEAN_MOTION_DOT":0.00026983,"MEAN_MOTION_DDOT":0},{"OBJECT_NAME":"STARLINK-35551","OBJECT_ID":"2025-243Z","EPOCH":"2026-03-03T14:31:43.235328","MEAN_MOTION":15.30284321,"ECCENTRICITY":5.205e-5,"INCLINATION":53.1567,"RA_OF_ASC_NODE":273.4112,"ARG_OF_PERICENTER":352.948,"MEAN_ANOMALY":7.1513,"EPHEMERIS_TYPE":0,"CLASSIFICATION_TYPE":"U","NORAD_CAT_ID":66200,"ELEMENT_SET_NO":999,"REV_AT_EPOCH":1972,"BSTAR":0.0013078725,"MEAN_MOTION_DOT":0.00038679,"MEAN_MOTION_DDOT":0},{"OBJECT_NAME":"STARLINK-35543","OBJECT_ID":"2025-243AA","EPOCH":"2026-03-02T21:21:45.233568","MEAN_MOTION":15.30202742,"ECCENTRICITY":0.0001113,"INCLINATION":53.1577,"RA_OF_ASC_NODE":276.7686,"ARG_OF_PERICENTER":100.3307,"MEAN_ANOMALY":259.7819,"EPHEMERIS_TYPE":0,"CLASSIFICATION_TYPE":"U","NORAD_CAT_ID":66201,"ELEMENT_SET_NO":999,"REV_AT_EPOCH":1961,"BSTAR":0.00050164,"MEAN_MOTION_DOT":0.00014528,"MEAN_MOTION_DDOT":0}]
